{"fetched_at":"2026-07-15T06:36:19.321Z","source":"https://celestrak.org/NORAD/elements/gp.php?NAME=PLEIADES&FORMAT=JSON","constellation":"pleiades-neo","records":[{"OBJECT_NAME":"PLEIADES NEO 3","OBJECT_ID":"2021-034A","EPOCH":"2026-07-14T22:35:41.730144","CLASSIFICATION_TYPE":"U","MEAN_MOTION":14.816654,"ECCENTRICITY":0.00013058,"INCLINATION":97.8946,"RA_OF_ASC_NODE":270.3085,"ARG_OF_PERICENTER":92.8825,"MEAN_ANOMALY":267.2538,"EPHEMERIS_TYPE":0,"NORAD_CAT_ID":48268,"ELEMENT_SET_NO":999,"REV_AT_EPOCH":28176,"BSTAR":-0.000082383833,"MEAN_MOTION_DOT":-0.000007,"MEAN_MOTION_DDOT":0},{"OBJECT_NAME":"PLEIADES NEO 4","OBJECT_ID":"2021-073E","EPOCH":"2026-07-14T21:47:03.963264","CLASSIFICATION_TYPE":"U","MEAN_MOTION":14.81673026,"ECCENTRICITY":0.00013525,"INCLINATION":97.8945,"RA_OF_ASC_NODE":270.2713,"ARG_OF_PERICENTER":92.99,"MEAN_ANOMALY":267.1468,"EPHEMERIS_TYPE":0,"NORAD_CAT_ID":49070,"ELEMENT_SET_NO":999,"REV_AT_EPOCH":26547,"BSTAR":0.00011820978,"MEAN_MOTION_DOT":0.00000878,"MEAN_MOTION_DDOT":0}]}
